CS2                     
1 49262U 21088C   26068.73485932  .00018033  00000+0  56178-3 0  9999
2 49262  97.3928 134.2907 0011637  82.3491 277.9072 15.33255930245263
STARLINK-36110          
1 66945U 25286W   26068.24281598  .00011206  00000+0  39007-3 0  9995
2 66945  53.1609   0.8560 0001106  73.5701 286.5422 15.30184781 15346
